{"type": "FeatureCollection", "features": [ {"type": "Feature", "properties": {"norad_id": 30224, "name": "FENGYUN 1C DEB", "group": "fengyun-1c-debris", "lat": 56.30110108793366, "lon": -129.5618508442346, "alt_km": 1002.5006026773481, "timestamp": "2025-12-22T23:36:20.988219+00:00", "meta": {"OBJECT_NAME": "FENGYUN 1C DEB", "OBJECT_ID": "1999-025WH", "EPOCH": "2025-12-22T02:25:48.586656", "MEAN_MOTION": 13.89875055, "ECCENTRICITY": 0.01109923, "INCLINATION": 99.4828, "RA_OF_ASC_NODE": 35.025, "ARG_OF_PERICENTER": 318.0942, "MEAN_ANOMALY": 71.6718, "EPHEMERIS_TYPE": 0, "CLASSIFICATION_TYPE": "U", "NORAD_CAT_ID": 30224, "ELEMENT_SET_NO": 999, "REV_AT_EPOCH": 95871, "BSTAR": 0.0003576865, "MEAN_MOTION_DOT": 4.15e-06, "MEAN_MOTION_DDOT": 0}, "tle": {"line1": "1 30224U 99025WH  25356.10125679  .00000415  00000+0  35769-3 0  9990", "line2": "2 30224  99.4828  35.0250 0110992 318.0942  71.6718 13.89875055958718"}}, "geometry": {"type": "Point", "coordinates": [-129.5618508442346, 56.30110108793366]}}, {"type": "Feature", "properties": {"norad_id": 30225, "name": "FENGYUN 1C DEB", "group": "fengyun-1c-debris", "lat": 35.16495258023706, "lon": -150.38051840444322, "alt_km": 835.2375918783673, "timestamp": "2025-12-22T23:36:20.988230+00:00", "meta": {"OBJECT_NAME": "FENGYUN 1C DEB", "OBJECT_ID": "1999-025WJ", "EPOCH": "2025-12-22T07:57:56.155680", "MEAN_MOTION": 14.15190751, "ECCENTRICITY": 0.01002928, "INCLINATION": 98.6588, "RA_OF_ASC_NODE": 22.824, "ARG_OF_PERICENTER": 58.747, "MEAN_ANOMALY": 6.1617, "EPHEMERIS_TYPE": 0, "CLASSIFICATION_TYPE": "U", "NORAD_CAT_ID": 30225, "ELEMENT_SET_NO": 999, "REV_AT_EPOCH": 97672, "BSTAR": 0.00016270913, "MEAN_MOTION_DOT": 2.9e-06, "MEAN_MOTION_DDOT": 0}, "tle": {"line1": "1 30225U 99025WJ  25356.33189995  .00000290  00000+0  16271-3 0  9995", "line2": "2 30225  98.6588  22.8240 0100292  58.7470   6.1617 14.15190751976727"}}, "geometry": {"type": "Point", "coordinates": [-150.38051840444322, 35.16495258023706]}}, {"type": "Feature", "properties": {"norad_id": 30229, "name": "FENGYUN 1C DEB", "group": "fengyun-1c-debris", "lat": -72.55724824930562, "lon": -152.95534414295366, "alt_km": 708.68703521915, "timestamp": "2025-12-22T23:36:20.988239+00:00", "meta": {"OBJECT_NAME": "FENGYUN 1C DEB", "OBJECT_ID": "1999-025WN", "EPOCH": "2025-12-22T03:01:28.991136", "MEAN_MOTION": 14.6068949, "ECCENTRICITY": 0.00369646, "INCLINATION": 99.0616, "RA_OF_ASC_NODE": 56.6333, "ARG_OF_PERICENTER": 11.542, "MEAN_ANOMALY": 57.0439, "EPHEMERIS_TYPE": 0, "CLASSIFICATION_TYPE": "U", "NORAD_CAT_ID": 30229, "ELEMENT_SET_NO": 999, "REV_AT_EPOCH": 99063, "BSTAR": 0.0017650825, "MEAN_MOTION_DOT": 8.634e-05, "MEAN_MOTION_DDOT": 0}, "tle": {"line1": "1 30229U 99025WN  25356.12602999  .00008634  00000+0  17651-2 0  9992", "line2": "2 30229  99.0616  56.6333 0036964  11.5420  57.0439 14.60689490990638"}}, "geometry": {"type": "Point", "coordinates": [-152.95534414295366, -72.55724824930562]}}, {"type": "Feature", "properties": {"norad_id": 30231, "name": "FENGYUN 1C DEB", "group": "fengyun-1c-debris", "lat": 60.11024107142392, "lon": -122.80577096114139, "alt_km": 890.9621835835096, "timestamp": "2025-12-22T23:36:20.988249+00:00", "meta": {"OBJECT_NAME": "FENGYUN 1C DEB", "OBJECT_ID": "1999-025WQ", "EPOCH": "2025-12-22T02:45:33.898752", "MEAN_MOTION": 14.11664051, "ECCENTRICITY": 0.01279649, "INCLINATION": 98.8038, "RA_OF_ASC_NODE": 40.7002, "ARG_OF_PERICENTER": 2.6485, "MEAN_ANOMALY": 22.9219, "EPHEMERIS_TYPE": 0, "CLASSIFICATION_TYPE": "U", "NORAD_CAT_ID": 30231, "ELEMENT_SET_NO": 999, "REV_AT_EPOCH": 97152, "BSTAR": 0.00049689454, "MEAN_MOTION_DOT": 9.33e-06, "MEAN_MOTION_DDOT": 0}, "tle": {"line1": "1 30231U 99025WQ  25356.11497568  .00000933  00000+0  49689-3 0  9999", "line2": "2 30231  98.8038  40.7002 0127964   2.6485  22.9219 14.11664051971522"}}, "geometry": {"type": "Point", "coordinates": [-122.80577096114139, 60.11024107142392]}}, {"type": "Feature", "properties": {"norad_id": 30232, "name": "FENGYUN 1C DEB", "group": "fengyun-1c-debris", "lat": 8.49992292658451, "lon": 19.01565973615805, "alt_km": 762.7310304230832, "timestamp": "2025-12-22T23:36:20.988259+00:00", "meta": {"OBJECT_NAME": "FENGYUN 1C DEB", "OBJECT_ID": "1999-025WR", "EPOCH": "2025-12-22T13:13:19.558848", "MEAN_MOTION": 14.63665957, "ECCENTRICITY": 0.013536, "INCLINATION": 98.6923, "RA_OF_ASC_NODE": 197.2494, "ARG_OF_PERICENTER": 319.4238, "MEAN_ANOMALY": 94.3057, "EPHEMERIS_TYPE": 0, "CLASSIFICATION_TYPE": "U", "NORAD_CAT_ID": 30232, "ELEMENT_SET_NO": 999, "REV_AT_EPOCH": 99895, "BSTAR": 0.0007802572, "MEAN_MOTION_DOT": 4.576e-05, "MEAN_MOTION_DDOT": 0}, "tle": {"line1": "1 30232U 99025WR  25356.55092082  .00004576  00000+0  78026-3 0  9994", "line2": "2 30232  98.6923 197.2494 0135360 319.4238  94.3057 14.63665957998953"}}, "geometry": {"type": "Point", "coordinates": [19.01565973615805, 8.49992292658451]}}, {"type": "Feature", "properties": {"norad_id": 30234, "name": "FENGYUN 1C DEB", "group": "fengyun-1c-debris", "lat": 26.650628359515412, "lon": -168.1665483708058, "alt_km": 848.5165332467795, "timestamp": "2025-12-22T23:36:20.988270+00:00", "meta": {"OBJECT_NAME": "FENGYUN 1C DEB", "OBJECT_ID": "1999-025WT", "EPOCH": "2025-12-22T11:47:40.238880", "MEAN_MOTION": 14.16877409, "ECCENTRICITY": 0.00667561, "INCLINATION": 98.6335, "RA_OF_ASC_NODE": 6.9828, "ARG_OF_PERICENTER": 47.5132, "MEAN_ANOMALY": 115.807, "EPHEMERIS_TYPE": 0, "CLASSIFICATION_TYPE": "U", "NORAD_CAT_ID": 30234, "ELEMENT_SET_NO": 999, "REV_AT_EPOCH": 97594, "BSTAR": 0.00030557097, "MEAN_MOTION_DOT": 5.84e-06, "MEAN_MOTION_DDOT": 0}, "tle": {"line1": "1 30234U 99025WT  25356.49143795  .00000584  00000+0  30557-3 0  9999", "line2": "2 30234  98.6335   6.9828 0066756  47.5132 115.8070 14.16877409975946"}}, "geometry": {"type": "Point", "coordinates": [-168.1665483708058, 26.650628359515412]}}, {"type": "Feature", "properties": {"norad_id": 30235, "name": "FENGYUN 1C DEB", "group": "fengyun-1c-debris", "lat": 5.397123213862683, "lon": -164.31297449584844, "alt_km": 773.9957376820794, "timestamp": "2025-12-22T23:36:20.988280+00:00", "meta": {"OBJECT_NAME": "FENGYUN 1C DEB", "OBJECT_ID": "1999-025WU", "EPOCH": "2025-12-21T13:18:54.872064", "MEAN_MOTION": 14.08789337, "ECCENTRICITY": 0.015372, "INCLINATION": 98.7488, "RA_OF_ASC_NODE": 13.4664, "ARG_OF_PERICENTER": 213.5255, "MEAN_ANOMALY": 279.7021, "EPHEMERIS_TYPE": 0, "CLASSIFICATION_TYPE": "U", "NORAD_CAT_ID": 30235, "ELEMENT_SET_NO": 999, "REV_AT_EPOCH": 97017, "BSTAR": 0.00020806, "MEAN_MOTION_DOT": 3.57e-06, "MEAN_MOTION_DDOT": 0}, "tle": {"line1": "1 30235U 99025WU  25355.55480176  .00000357  00000+0  20806-3 0  9997", "line2": "2 30235  98.7488  13.4664 0153720 213.5255 279.7021 14.08789337970176"}}, "geometry": {"type": "Point", "coordinates": [-164.31297449584844, 5.397123213862683]}}, {"type": "Feature", "properties": {"norad_id": 30237, "name": "FENGYUN 1C DEB", "group": "fengyun-1c-debris", "lat": -33.34137931110973, "lon": -85.80567562958187, "alt_km": 755.9390730136674, "timestamp": "2025-12-22T23:36:20.988290+00:00", "meta": {"OBJECT_NAME": "FENGYUN 1C DEB", "OBJECT_ID": "1999-025WW", "EPOCH": "2025-12-22T06:12:07.642656", "MEAN_MOTION": 14.4101567, "ECCENTRICITY": 0.00147637, "INCLINATION": 98.8256, "RA_OF_ASC_NODE": 99.313, "ARG_OF_PERICENTER": 275.7658, "MEAN_ANOMALY": 138.3584, "EPHEMERIS_TYPE": 0, "CLASSIFICATION_TYPE": "U", "NORAD_CAT_ID": 30237, "ELEMENT_SET_NO": 999, "REV_AT_EPOCH": 97835, "BSTAR": 0.0023884849, "MEAN_MOTION_DOT": 7.65e-05, "MEAN_MOTION_DDOT": 0}, "tle": {"line1": "1 30237U 99025WW  25356.25842179  .00007650  00000+0  23885-2 0  9994", "line2": "2 30237  98.8256  99.3130 0014763 275.7658 138.3584 14.41015670978354"}}, "geometry": {"type": "Point", "coordinates": [-85.80567562958187, -33.34137931110973]}}, {"type": "Feature", "properties": {"norad_id": 30239, "name": "FENGYUN 1C DEB", "group": "fengyun-1c-debris", "lat": 78.7882680805912, "lon": 83.778122078244, "alt_km": 1480.4453005861678, "timestamp": "2025-12-22T23:36:20.988300+00:00", "meta": {"OBJECT_NAME": "FENGYUN 1C DEB", "OBJECT_ID": "1999-025WY", "EPOCH": "2025-12-21T15:34:35.799744", "MEAN_MOTION": 11.38245043, "ECCENTRICITY": 0.1351203, "INCLINATION": 99.5672, "RA_OF_ASC_NODE": 141.1771, "ARG_OF_PERICENTER": 14.5155, "MEAN_ANOMALY": 349.0987, "EPHEMERIS_TYPE": 0, "CLASSIFICATION_TYPE": "U", "NORAD_CAT_ID": 30239, "ELEMENT_SET_NO": 999, "REV_AT_EPOCH": 54636, "BSTAR": 0.023977, "MEAN_MOTION_DOT": 8.124e-05, "MEAN_MOTION_DDOT": 0}, "tle": {"line1": "1 30239U 99025WY  25355.64902546  .00008124  00000+0  23977-1 0  9991", "line2": "2 30239  99.5672 141.1771 1351203  14.5155 349.0987 11.38245043546360"}}, "geometry": {"type": "Point", "coordinates": [83.778122078244, 78.7882680805912]}}, {"type": "Feature", "properties": {"norad_id": 30241, "name": "FENGYUN 1C DEB", "group": "fengyun-1c-debris", "lat": 65.47086126192211, "lon": 109.35170725917716, "alt_km": 751.6192243279256, "timestamp": "2025-12-22T23:36:20.988311+00:00", "meta": {"OBJECT_NAME": "FENGYUN 1C DEB", "OBJECT_ID": "1999-025XA", "EPOCH": "2025-12-22T08:12:49.281984", "MEAN_MOTION": 14.09556075, "ECCENTRICITY": 0.01466131, "INCLINATION": 99.1491, "RA_OF_ASC_NODE": 129.3799, "ARG_OF_PERICENTER": 54.4043, "MEAN_ANOMALY": 359.7428, "EPHEMERIS_TYPE": 0, "CLASSIFICATION_TYPE": "U", "NORAD_CAT_ID": 30241, "ELEMENT_SET_NO": 999, "REV_AT_EPOCH": 97047, "BSTAR": 0.00019319629, "MEAN_MOTION_DOT": 3.28e-06, "MEAN_MOTION_DDOT": 0}, "tle": {"line1": "1 30241U 99025XA  25356.34223706  .00000328  00000+0  19320-3 0  9993", "line2": "2 30241  99.1491 129.3799 0146613  54.4043 359.7428 14.09556075970473"}}, "geometry": {"type": "Point", "coordinates": [109.35170725917716, 65.47086126192211]}}]}